{"type": "FeatureCollection", "features": [ {"type": "Feature", "properties": {"norad_id": 34736, "name": "COSMOS 2251 DEB", "group": "cosmos-2251-debris", "lat": 7.477682540733009, "lon": 47.12664662883582, "alt_km": 426.0162296030376, "timestamp": "2025-12-08T17:43:05.332902+00:00", "meta": {"OBJECT_NAME": "COSMOS 2251 DEB", "OBJECT_ID": "1993-036ZE", "EPOCH": "2025-12-08T06:47:44.876256", "MEAN_MOTION": 15.43371361, "ECCENTRICITY": 0.00168782, "INCLINATION": 74.0024, "RA_OF_ASC_NODE": 45.9588, "ARG_OF_PERICENTER": 350.2991, "MEAN_ANOMALY": 9.789, "EPHEMERIS_TYPE": 0, "CLASSIFICATION_TYPE": "U", "NORAD_CAT_ID": 34736, "ELEMENT_SET_NO": 999, "REV_AT_EPOCH": 88379, "BSTAR": 0.0083104259, "MEAN_MOTION_DOT": 0.00391997, "MEAN_MOTION_DDOT": 0}, "tle": {"line1": "1 34736U 93036ZE  25342.28315829  .00391997  00000+0  83104-2 0  9993", "line2": "2 34736  74.0024  45.9588 0016878 350.2991   9.7890 15.43371361883792"}}, "geometry": {"type": "Point", "coordinates": [47.12664662883582, 7.477682540733009]}}, {"type": "Feature", "properties": {"norad_id": 34738, "name": "COSMOS 2251 DEB", "group": "cosmos-2251-debris", "lat": -72.08420229866888, "lon": 33.20562161992739, "alt_km": 717.4409197726272, "timestamp": "2025-12-08T17:43:05.332913+00:00", "meta": {"OBJECT_NAME": "COSMOS 2251 DEB", "OBJECT_ID": "1993-036ZG", "EPOCH": "2025-12-08T05:43:18.100416", "MEAN_MOTION": 14.46286671, "ECCENTRICITY": 0.00472751, "INCLINATION": 74.0142, "RA_OF_ASC_NODE": 151.6789, "ARG_OF_PERICENTER": 298.7815, "MEAN_ANOMALY": 241.8468, "EPHEMERIS_TYPE": 0, "CLASSIFICATION_TYPE": "U", "NORAD_CAT_ID": 34738, "ELEMENT_SET_NO": 999, "REV_AT_EPOCH": 87793, "BSTAR": 0.0005820075, "MEAN_MOTION_DOT": 2.087e-05, "MEAN_MOTION_DDOT": 0}, "tle": {"line1": "1 34738U 93036ZG  25342.23840394  .00002087  00000+0  58201-3 0  9990", "line2": "2 34738  74.0142 151.6789 0047275 298.7815 241.8468 14.46286671877939"}}, "geometry": {"type": "Point", "coordinates": [33.20562161992739, -72.08420229866888]}}, {"type": "Feature", "properties": {"norad_id": 34750, "name": "COSMOS 2251 DEB", "group": "cosmos-2251-debris", "lat": -23.52602828720464, "lon": 36.49354112385546, "alt_km": 673.1885514965097, "timestamp": "2025-12-08T17:43:05.332924+00:00", "meta": {"OBJECT_NAME": "COSMOS 2251 DEB", "OBJECT_ID": "1993-036ZU", "EPOCH": "2025-12-08T02:42:02.731104", "MEAN_MOTION": 14.61252571, "ECCENTRICITY": 0.00390856, "INCLINATION": 74.1081, "RA_OF_ASC_NODE": 210.5595, "ARG_OF_PERICENTER": 165.2822, "MEAN_ANOMALY": 348.5625, "EPHEMERIS_TYPE": 0, "CLASSIFICATION_TYPE": "U", "NORAD_CAT_ID": 34750, "ELEMENT_SET_NO": 999, "REV_AT_EPOCH": 88163, "BSTAR": 0.0013001667, "MEAN_MOTION_DOT": 6.459e-05, "MEAN_MOTION_DDOT": 0}, "tle": {"line1": "1 34750U 93036ZU  25342.11253161  .00006459  00000+0  13002-2 0  9997", "line2": "2 34750  74.1081 210.5595 0039085 165.2822 348.5625 14.61252571881633"}}, "geometry": {"type": "Point", "coordinates": [36.49354112385546, -23.52602828720464]}}, {"type": "Feature", "properties": {"norad_id": 34752, "name": "COSMOS 2251 DEB", "group": "cosmos-2251-debris", "lat": 28.498490199264147, "lon": 179.79530963002844, "alt_km": 533.2572015149035, "timestamp": "2025-12-08T17:43:05.332934+00:00", "meta": {"OBJECT_NAME": "COSMOS 2251 DEB", "OBJECT_ID": "1993-036ZW", "EPOCH": "2025-12-07T12:14:11.612832", "MEAN_MOTION": 14.99757687, "ECCENTRICITY": 0.00479353, "INCLINATION": 74.0147, "RA_OF_ASC_NODE": 11.2469, "ARG_OF_PERICENTER": 141.5574, "MEAN_ANOMALY": 218.9045, "EPHEMERIS_TYPE": 0, "CLASSIFICATION_TYPE": "U", "NORAD_CAT_ID": 34752, "ELEMENT_SET_NO": 999, "REV_AT_EPOCH": 89771, "BSTAR": 0.001584383, "MEAN_MOTION_DOT": 0.00020079, "MEAN_MOTION_DDOT": 0}, "tle": {"line1": "1 34752U 93036ZW  25341.50985663  .00020079  00000+0  15844-2 0  9990", "line2": "2 34752  74.0147  11.2469 0047935 141.5574 218.9045 14.99757687897718"}}, "geometry": {"type": "Point", "coordinates": [179.79530963002844, 28.498490199264147]}}, {"type": "Feature", "properties": {"norad_id": 34754, "name": "COSMOS 2251 DEB", "group": "cosmos-2251-debris", "lat": -70.14111541313764, "lon": 107.45384315557202, "alt_km": 765.2154692410459, "timestamp": "2025-12-08T17:43:05.332944+00:00", "meta": {"OBJECT_NAME": "COSMOS 2251 DEB", "OBJECT_ID": "1993-036ZY", "EPOCH": "2025-12-08T03:53:16.177056", "MEAN_MOTION": 14.40470967, "ECCENTRICITY": 0.00293671, "INCLINATION": 74.0306, "RA_OF_ASC_NODE": 236.0696, "ARG_OF_PERICENTER": 353.0849, "MEAN_ANOMALY": 158.1545, "EPHEMERIS_TYPE": 0, "CLASSIFICATION_TYPE": "U", "NORAD_CAT_ID": 34754, "ELEMENT_SET_NO": 999, "REV_AT_EPOCH": 88067, "BSTAR": 0.00035289691, "MEAN_MOTION_DOT": 1.101e-05, "MEAN_MOTION_DDOT": 0}, "tle": {"line1": "1 34754U 93036ZY  25342.16199279  .00001101  00000+0  35290-3 0  9998", "line2": "2 34754  74.0306 236.0696 0029367 353.0849 158.1545 14.40470967880676"}}, "geometry": {"type": "Point", "coordinates": [107.45384315557202, -70.14111541313764]}}, {"type": "Feature", "properties": {"norad_id": 34755, "name": "COSMOS 2251 DEB", "group": "cosmos-2251-debris", "lat": -34.76259148433705, "lon": 128.0007885353925, "alt_km": 1120.2701284704444, "timestamp": "2025-12-08T17:43:05.332955+00:00", "meta": {"OBJECT_NAME": "COSMOS 2251 DEB", "OBJECT_ID": "1993-036ZZ", "EPOCH": "2025-12-07T05:21:37.079712", "MEAN_MOTION": 13.50532818, "ECCENTRICITY": 0.04083361, "INCLINATION": 73.9259, "RA_OF_ASC_NODE": 298.8912, "ARG_OF_PERICENTER": 319.6826, "MEAN_ANOMALY": 98.5646, "EPHEMERIS_TYPE": 0, "CLASSIFICATION_TYPE": "U", "NORAD_CAT_ID": 34755, "ELEMENT_SET_NO": 999, "REV_AT_EPOCH": 82449, "BSTAR": 0.0029279704, "MEAN_MOTION_DOT": 3.136e-05, "MEAN_MOTION_DDOT": 0}, "tle": {"line1": "1 34755U 93036ZZ  25341.22334583  .00003136  00000+0  29280-2 0  9995", "line2": "2 34755  73.9259 298.8912 0408336 319.6826  98.5646 13.50532818824490"}}, "geometry": {"type": "Point", "coordinates": [128.0007885353925, -34.76259148433705]}}, {"type": "Feature", "properties": {"norad_id": 34756, "name": "COSMOS 2251 DEB", "group": "cosmos-2251-debris", "lat": -58.947456354063405, "lon": -40.59592728636967, "alt_km": 1072.4904541798023, "timestamp": "2025-12-08T17:43:05.332965+00:00", "meta": {"OBJECT_NAME": "COSMOS 2251 DEB", "OBJECT_ID": "1993-036AAA", "EPOCH": "2025-12-08T02:27:45.880704", "MEAN_MOTION": 13.6722694, "ECCENTRICITY": 0.03447886, "INCLINATION": 74.0022, "RA_OF_ASC_NODE": 111.9949, "ARG_OF_PERICENTER": 348.8183, "MEAN_ANOMALY": 10.5402, "EPHEMERIS_TYPE": 0, "CLASSIFICATION_TYPE": "U", "NORAD_CAT_ID": 34756, "ELEMENT_SET_NO": 999, "REV_AT_EPOCH": 83358, "BSTAR": 0.0012030155, "MEAN_MOTION_DOT": 1.5e-05, "MEAN_MOTION_DDOT": 0}, "tle": {"line1": "1 34756U 93036AAA 25342.10261436  .00001500  00000+0  12030-2 0  9998", "line2": "2 34756  74.0022 111.9949 0344788 348.8183  10.5402 13.67226940833584"}}, "geometry": {"type": "Point", "coordinates": [-40.59592728636967, -58.947456354063405]}}, {"type": "Feature", "properties": {"norad_id": 34758, "name": "COSMOS 2251 DEB", "group": "cosmos-2251-debris", "lat": 42.409306712728686, "lon": 110.85327355072616, "alt_km": 909.7538637817697, "timestamp": "2025-12-08T17:43:05.332976+00:00", "meta": {"OBJECT_NAME": "COSMOS 2251 DEB", "OBJECT_ID": "1993-036AAC", "EPOCH": "2025-12-08T04:43:03.824256", "MEAN_MOTION": 13.58047561, "ECCENTRICITY": 0.03809152, "INCLINATION": 74.1073, "RA_OF_ASC_NODE": 306.8082, "ARG_OF_PERICENTER": 71.6192, "MEAN_ANOMALY": 292.5942, "EPHEMERIS_TYPE": 0, "CLASSIFICATION_TYPE": "U", "NORAD_CAT_ID": 34758, "ELEMENT_SET_NO": 999, "REV_AT_EPOCH": 82848, "BSTAR": 0.0015859564, "MEAN_MOTION_DOT": 1.824e-05, "MEAN_MOTION_DDOT": 0}, "tle": {"line1": "1 34758U 93036AAC 25342.19657204  .00001824  00000+0  15860-2 0  9994", "line2": "2 34758  74.1073 306.8082 0380915  71.6192 292.5942 13.58047561828483"}}, "geometry": {"type": "Point", "coordinates": [110.85327355072616, 42.409306712728686]}}, {"type": "Feature", "properties": {"norad_id": 34760, "name": "COSMOS 2251 DEB", "group": "cosmos-2251-debris", "lat": -34.44454699705607, "lon": 140.80263536383396, "alt_km": 890.5893369300129, "timestamp": "2025-12-08T17:43:05.332987+00:00", "meta": {"OBJECT_NAME": "COSMOS 2251 DEB", "OBJECT_ID": "1993-036AAE", "EPOCH": "2025-12-08T06:51:47.154816", "MEAN_MOTION": 14.19551533, "ECCENTRICITY": 0.00965571, "INCLINATION": 74.0628, "RA_OF_ASC_NODE": 310.3076, "ARG_OF_PERICENTER": 3.4439, "MEAN_ANOMALY": 62.6242, "EPHEMERIS_TYPE": 0, "CLASSIFICATION_TYPE": "U", "NORAD_CAT_ID": 34760, "ELEMENT_SET_NO": 999, "REV_AT_EPOCH": 86625, "BSTAR": 0.0010911736, "MEAN_MOTION_DOT": 2.386e-05, "MEAN_MOTION_DDOT": 0}, "tle": {"line1": "1 34760U 93036AAE 25342.28596244  .00002386  00000+0  10912-2 0  9990", "line2": "2 34760  74.0628 310.3076 0096557   3.4439  62.6242 14.19551533866250"}}, "geometry": {"type": "Point", "coordinates": [140.80263536383396, -34.44454699705607]}}, {"type": "Feature", "properties": {"norad_id": 34761, "name": "COSMOS 2251 DEB", "group": "cosmos-2251-debris", "lat": -47.994638859522745, "lon": -151.29210312611488, "alt_km": 797.2734989280816, "timestamp": "2025-12-08T17:43:05.332997+00:00", "meta": {"OBJECT_NAME": "COSMOS 2251 DEB", "OBJECT_ID": "1993-036AAF", "EPOCH": "2025-12-08T03:17:37.259520", "MEAN_MOTION": 14.38024358, "ECCENTRICITY": 0.00362143, "INCLINATION": 74.0292, "RA_OF_ASC_NODE": 11.2731, "ARG_OF_PERICENTER": 46.8456, "MEAN_ANOMALY": 313.5715, "EPHEMERIS_TYPE": 0, "CLASSIFICATION_TYPE": "U", "NORAD_CAT_ID": 34761, "ELEMENT_SET_NO": 999, "REV_AT_EPOCH": 87583, "BSTAR": 0.00078028179, "MEAN_MOTION_DOT": 2.354e-05, "MEAN_MOTION_DDOT": 0}, "tle": {"line1": "1 34761U 93036AAF 25342.13723680  .00002354  00000+0  78028-3 0  9999", "line2": "2 34761  74.0292  11.2731 0036214  46.8456 313.5715 14.38024358875835"}}, "geometry": {"type": "Point", "coordinates": [-151.29210312611488, -47.994638859522745]}}]}